NORAD_CAT_ID,OBJECT_NAME,OBJECT_TYPE,EPOCH,MEAN_MOTION,ECCENTRICITY,INCLINATION,RA_OF_ASC_NODE,ARG_OF_PERICENTER,MEAN_ANOMALY,BSTAR,MEAN_MOTION_DOT,MEAN_MOTION_DDOT,TLE_LINE0,TLE_LINE1,TLE_LINE2,SEMIMAJOR_AXIS,PERIOD,APOGEE,PERIGEE,DECAYED
53562.0,STARLINK-4565,PAYLOAD,2024-03-09 07:55:16,15.08844174,0.0001689,53.2178,92.9757,90.4381,269.6804,4.5185e-05,4.31e-06,0.0,0 STARLINK-4565,1 53562U 22101AM  24069.33005640  .00000431  00000-0  45185-4 0  9994,2 53562  53.2178  92.9757 0001689  90.4381 269.6804 15.08844174 86187,6917.868,95.437,540.901,538.564,0.0
53562.0,STARLINK-4565,PAYLOAD,2024-03-10 01:24:30,15.08859178,0.0001393,53.2187,89.7016,101.3121,258.8028,9.0774e-05,1.158e-05,0.0,0 STARLINK-4565,1 53562U 22101AM  24070.05868077  .00001158  00000-0  90774-4 0  9997,2 53562  53.2187  89.7016 0001393 101.3121 258.8028 15.08859178 86295,6917.822,95.436,540.65,538.723,0.0
53562.0,STARLINK-4565,PAYLOAD,2024-03-10 10:56:49,15.08840506,0.0001327,53.2166,87.9205,92.2248,267.8896,-7.3319e-05,-1.455e-05,0.0,0 STARLINK-4565,1 53562U 22101AM  24070.45613350 -.00001455  00000-0 -73319-4 0  9991,2 53562  53.2166  87.9205 0001327  92.2248 267.8896 15.08840506 86352,6917.879,95.438,540.662,538.826,0.0
53562.0,STARLINK-4565,PAYLOAD,2024-03-11 07:36:51,15.08828764,0.0001277,53.2154,84.0559,84.4461,275.6677,1.8411e-05,5e-08,0.0,0 STARLINK-4565,1 53562U 22101AM  24071.31726187  .00000005  00000-0  18411-4 0  9990,2 53562  53.2154  84.0559 0001277  84.4461 275.6677 15.08828764 86483,6917.915,95.438,540.663,538.896,0.0
53562.0,STARLINK-4565,PAYLOAD,2024-03-12 04:16:51,15.08831903,0.0001337,53.2164,80.1888,90.2881,269.8265,9.7497e-05,1.264e-05,0.0,0 STARLINK-4565,1 53562U 22101AM  24072.17837700  .00001264  00000-0  97497-4 0  9998,2 53562  53.2164  80.1888 0001337  90.2881 269.8265 15.08831903 86616,6917.905,95.438,540.695,538.845,0.0
53562.0,STARLINK-4565,PAYLOAD,2024-03-12 16:59:56,15.08836232,0.0001363,53.2165,77.8084,87.6395,272.4753,0.00014556,2.029e-05,0.0,0 STARLINK-4565,1 53562U 22101AM  24072.70829529  .00002029  00000-0  14556-3 0  9991,2 53562  53.2165  77.8084 0001363  87.6395 272.4753 15.08836232 87351,6917.892,95.438,540.7,538.814,0.0
53562.0,STARLINK-4565,PAYLOAD,2024-03-13 07:18:25,15.08833914,0.0001399,53.2171,75.1347,91.1399,268.9753,6.4578e-05,7.4e-06,0.0,0 STARLINK-4565,1 53562U 22101AM  24073.30446085  .00000740  00000-0  64578-4 0  9998,2 53562  53.2171  75.1347 0001399  91.1399 268.9753 15.08833914 86784,6917.899,95.438,540.732,538.796,0.0
53562.0,STARLINK-4565,PAYLOAD,2024-03-13 23:12:16,15.08839337,0.0001473,53.2169,72.1617,107.4073,252.708,2.1323e-05,5.1e-07,0.0,0 STARLINK-4565,1 53562U 22101AM  24073.96686145  .00000051  00000-0  21323-4 0  9999,2 53562  53.2169  72.1617 0001473 107.4073 252.7080 15.08839337 87545,6917.882,95.438,540.766,538.728,0.0
53562.0,STARLINK-4565,PAYLOAD,2024-03-14 05:33:49,15.08843211,0.0001432,53.2167,70.9723,104.8853,255.2298,3.1111e-06,-2.38e-06,0.0,0 STARLINK-4565,1 53562U 22101AM  24074.23182003 -.00000238  00000-0  31111-5 0  9999,2 53562  53.2167  70.9723 0001432 104.8853 255.2298 15.08843211 87588,6917.871,95.437,540.726,538.745,0.0
53562.0,STARLINK-4565,PAYLOAD,2024-03-14 07:09:12,15.08844207,0.0001423,53.2169,70.6749,102.9929,257.1222,2.8217e-05,1.61e-06,0.0,0 STARLINK-4565,1 53562U 22101AM  24074.29805860  .00000161  00000-0  28217-4 0  9994,2 53562  53.2169  70.6749 0001423 102.9929 257.1222 15.08844207 86930,6917.868,95.437,540.717,538.748,0.0
53562.0,STARLINK-4565,PAYLOAD,2024-03-15 03:49:14,15.08822101,0.0002,53.2164,66.8084,89.4815,270.6406,0.00018671,2.683e-05,0.0,0 STARLINK-4565,1 53562U 22101AM  24075.15919282  .00002683  00000-0  18671-3 0  9997,2 53562  53.2164  66.8084 0002000  89.4815 270.6406 15.08822101 87067,6917.935,95.439,541.184,538.417,0.0
53562.0,STARLINK-4565,PAYLOAD,2024-03-15 08:35:22,15.08837948,0.0001374,53.2166,65.9162,91.4965,268.6184,3.9405e-05,3.39e-06,0.0,0 STARLINK-4565,1 53562U 22101AM  24075.35790406  .00000339  00000-0  39405-4 0  9999,2 53562  53.2166  65.9162 0001374  91.4965 268.6184 15.08837948 87096,6917.887,95.438,540.702,538.801,0.0
53562.0,STARLINK-4565,PAYLOAD,2024-03-16 08:26:09,15.08847591,0.0001488,53.2172,61.4551,86.8736,273.2426,9.1051e-05,1.162e-05,0.0,0 STARLINK-4565,1 53562U 22101AM  24076.35149702  .00001162  00000-0  91051-4 0  9997,2 53562  53.2172  61.4551 0001488  86.8736 273.2426 15.08847591 87249,6917.857,95.437,540.752,538.693,0.0
53562.0,STARLINK-4565,PAYLOAD,2024-03-17 05:06:10,15.08839816,0.000143,53.2168,57.5864,93.2225,266.8931,4.654e-05,4.53e-06,0.0,0 STARLINK-4565,1 53562U 22101AM  24077.21262251  .00000453  00000-0  46540-4 0  9993,2 53562  53.2168  57.5864 0001430  93.2225 266.8931 15.08839816 87373,6917.881,95.438,540.735,538.757,0.0
53562.0,STARLINK-4565,PAYLOAD,2024-03-17 08:16:56,15.08841715,0.0001406,53.2166,56.991,95.8131,264.3022,5.801e-05,6.35e-06,0.0,0 STARLINK-4565,1 53562U 22101AM  24077.34510067  .00000635  00000-0  58010-4 0  9995,2 53562  53.2166  56.9910 0001406  95.8131 264.3022 15.08841715 88054,6917.875,95.437,540.713,538.767,0.0
53562.0,STARLINK-4565,PAYLOAD,2024-03-17 22:35:25,15.08834578,0.0001847,53.2173,54.3119,127.8735,232.2424,-3.4079e-05,-8.3e-06,0.0,0 STARLINK-4565,1 53562U 22101AM  24077.94126692 -.00000830  00000-0 -34079-4 0  9996,2 53562  53.2173  54.3119 0001847 127.8735 232.2424 15.08834578 88149,6917.897,95.438,541.04,538.484,0.0
53562.0,STARLINK-4565,PAYLOAD,2024-03-18 04:56:57,15.0883819,0.0001822,53.2184,53.1264,123.4495,236.6671,-1.2614e-05,-4.89e-06,0.0,0 STARLINK-4565,1 53562U 22101AM  24078.20622483 -.00000489  00000-0 -12614-4 0  9996,2 53562  53.2184  53.1264 0001822 123.4495 236.6671 15.08838190 88187,6917.886,95.438,541.011,538.49,0.0
53562.0,STARLINK-4565,PAYLOAD,2024-03-18 22:26:12,15.08840699,0.0001635,53.2185,49.8551,120.0478,240.0677,-2.3958e-05,-6.69e-06,0.0,0 STARLINK-4565,1 53562U 22101AM  24078.93486567 -.00000669  00000-0 -23958-4 0  9990,2 53562  53.2185  49.8551 0001635 120.0478 240.0677 15.08840699 88299,6917.878,95.438,540.874,538.612,0.0
53562.0,STARLINK-4565,PAYLOAD,2024-03-19 04:47:44,15.08851097,0.000149,53.2188,48.6688,107.4764,252.6391,1.0067e-05,-1.28e-06,0.0,0 STARLINK-4565,1 53562U 22101AM  24079.19981930 -.00000128  00000-0  10067-4 0  9999,2 53562  53.2188  48.6688 0001490 107.4764 252.6391 15.08851097 87673,6917.846,95.437,540.742,538.681,0.0
53562.0,STARLINK-4565,PAYLOAD,2024-03-19 07:58:30,15.0885208,0.0001653,53.2184,48.072,125.3335,234.7812,7.188e-05,8.56e-06,0.0,0 STARLINK-4565,1 53562U 22101AM  24079.33229503  .00000856  00000-0  71880-4 0  9993,2 53562  53.2184  48.0720 0001653 125.3335 234.7812 15.08852080 88352,6917.843,95.437,540.852,538.565,0.0
53562.0,STARLINK-4565,PAYLOAD,2024-03-20 01:27:45,15.08809757,0.0001776,53.2187,44.7988,112.7069,247.4111,0.00053902,8.294e-05,0.0,0 STARLINK-4565,1 53562U 22101AM  24080.06094777  .00008294  00000-0  53902-3 0  9996,2 53562  53.2187  44.7988 0001776 112.7069 247.4111 15.08809757 87809,6917.973,95.439,541.066,538.609,0.0
53562.0,STARLINK-4565,PAYLOAD,2024-03-20 03:03:09,15.08787556,0.000187,53.2187,44.5016,108.4439,251.6757,0.00088677,0.00013833,0.0,0 STARLINK-4565,1 53562U 22101AM  24080.12719452  .00013833  00000-0  88677-3 0  9999,2 53562  53.2187  44.5016 0001870 108.4439 251.6757 15.08787556 87813,6918.041,95.441,541.199,538.612,0.0
53562.0,STARLINK-4565,PAYLOAD,2024-03-21 04:29:19,15.08837772,0.0001266,53.2184,39.7495,101.9227,258.1907,-3.7557e-05,-8.85e-06,0.0,0 STARLINK-4565,1 53562U 22101AM  24081.18703016 -.00000885  00000-0 -37557-4 0  9992,2 53562  53.2184  39.7495 0001266 101.9227 258.1907 15.08837772 87971,6917.887,95.438,540.628,538.876,0.0
53562.0,STARLINK-4565,PAYLOAD,2024-03-21 07:40:05,15.08844072,0.0001161,53.2179,39.1511,99.2839,260.8284,-6.175e-06,-3.86e-06,0.0,0 STARLINK-4565,1 53562U 22101AM  24081.31950458 -.00000386  00000-0 -61750-5 0  9990,2 53562  53.2179  39.1511 0001161  99.2839 260.8284 15.08844072 87991,6917.868,95.437,540.536,538.93,0.0
53562.0,STARLINK-4565,PAYLOAD,2024-03-21 14:01:37,15.08846063,0.0001078,53.2175,37.9617,99.4609,260.6505,-2.3283e-05,-6.58e-06,0.0,0 STARLINK-4565,1 53562U 22101AM  24081.58446320 -.00000658  00000-0 -23283-4 0  9997,2 53562  53.2175  37.9617 0001078  99.4609 260.6505 15.08846063 88698,6917.862,95.437,540.473,538.981,0.0
53562.0,STARLINK-4565,PAYLOAD,2024-03-22 04:20:05,15.08850908,0.000145,53.2189,35.285,101.3315,258.784,0.00019162,2.764e-05,0.0,0 STARLINK-4565,1 53562U 22101AM  24082.18061557  .00002764  00000-0  19162-3 0  9997,2 53562  53.2189  35.2850 0001450 101.3315 258.7840 15.08850908 88125,6917.847,95.437,540.715,538.709,0.0
53562.0,STARLINK-4565,PAYLOAD,2024-03-22 20:13:57,15.08836501,0.0001285,53.2192,32.3124,96.5633,263.5505,1.8346e-05,4e-08,0.0,0 STARLINK-4565,1 53562U 22101AM  24082.84303211  .00000004  00000-0  18346-4 0  9995,2 53562  53.2192  32.3124 0001285  96.5633 263.5505 15.08836501 88221,6917.891,95.438,540.645,538.867,0.0
53562.0,STARLINK-4565,PAYLOAD,2024-03-23 05:46:16,15.08841506,0.0001253,53.2192,30.5282,90.7093,269.4043,5.8356e-05,6.41e-06,0.0,0 STARLINK-4565,1 53562U 22101AM  24083.24046923  .00000641  00000-0  58356-4 0  9996,2 53562  53.2192  30.5282 0001253  90.7093 269.4043 15.08841506 88949,6917.876,95.437,540.608,538.874,0.0
53562.0,STARLINK-4565,PAYLOAD,2024-03-24 02:26:17,15.08851419,0.000211,53.2193,26.6629,62.7569,297.3638,1.4646e-06,-2.65e-06,0.0,0 STARLINK-4565,1 53562U 22101AM  24084.10158724 -.00000265  00000-0  14646-5 0  9993,2 53562  53.2193  26.6629 0002110  62.7569 297.3638 15.08851419 88417,6917.845,95.437,541.17,538.251,0.0
53562.0,STARLINK-4565,PAYLOAD,2024-03-24 05:37:01,15.08874561,0.0001448,53.2196,26.0666,96.1597,263.956,0.00019295,2.787e-05,0.0,0 STARLINK-4565,1 53562U 22101AM  24084.23404408  .00002787  00000-0  19295-3 0  9993,2 53562  53.2196  26.0666 0001448  96.1597 263.9560 15.08874561 88438,6917.775,95.435,540.641,538.638,0.0
